OBJECT_NAME,OBJECT_ID,EPOCH,MEAN_MOTION,ECCENTRICITY,INCLINATION,RA_OF_ASC_NODE,ARG_OF_PERICENTER,MEAN_ANOMALY,EPHEMERIS_TYPE,CLASSIFICATION_TYPE,NORAD_CAT_ID,ELEMENT_SET_NO,REV_AT_EPOCH,BSTAR,MEAN_MOTION_DOT,MEAN_MOTION_DDOT
ONEWEB-0365,2021-090N,2026-06-17T09:56:23.247744,13.19724707,.00018088,87.9177,304.9211,101.1626,258.9710,0,U,49291,999,22645,.16041052E-3,.77E-6,0
ONEWEB-0366,2021-090P,2026-06-17T08:38:04.164288,13.14502858,.00019546,87.8965,289.6720,100.4070,259.7280,0,U,49292,999,22758,-.31400724E-3,-.104E-5,0
ONEWEB-0367,2021-090Q,2026-06-17T07:33:08.758080,13.20771827,.00019188,87.9196,274.4148,105.6601,254.4744,0,U,49293,999,22984,.34441033E-3,.153E-5,0
ONEWEB-0368,2021-090R,2026-06-16T20:01:00.543648,13.20770287,.00014153,87.9183,274.5212,84.1734,275.9560,0,U,49294,999,23093,-.87222171E-4,-.22E-6,0
ONEWEB-0369,2021-090S,2026-06-17T09:49:34.068576,13.19725219,.0001795,87.9169,304.9297,98.4733,261.6603,0,U,49295,999,22644,.31783895E-3,.14E-5,0
ONEWEB-0370,2021-090T,2026-06-17T07:46:27.774048,13.20770613,.00022165,87.9197,274.4127,105.3556,254.7822,0,U,49296,999,22988,.21594261E-3,.101E-5,0
ONEWEB-0371,2021-090U,2026-06-17T08:11:45.375360,13.19724298,.00018757,87.9176,304.9355,102.4867,257.6476,0,U,49297,999,22647,.83780809E-4,.46E-6,0
ONEWEB-0372,2021-090V,2026-06-17T07:31:42.811680,13.20771729,.0001957,87.9195,274.4165,101.5231,258.6122,0,U,49298,999,22985,.28617445E-3,.129E-5,0
ONEWEB-0373,2021-090W,2026-06-17T08:08:17.219616,13.20771510,.00020817,87.9192,274.4117,100.1617,259.9751,0,U,49299,999,23104,.11548463E-3,.6E-6,0
ONEWEB-0374,2021-090X,2026-06-17T08:19:48.169920,13.14503043,.0002141,87.8969,289.6653,84.6612,275.4761,0,U,49300,999,22758,.20434583E-3,.89E-6,0
ONEWEB-0375,2021-090Y,2026-06-17T07:51:19.423296,13.20772032,.00022896,87.9195,274.4057,87.3176,272.8219,0,U,49301,999,23054,.49195728E-3,.213E-5,0
ONEWEB-0376,2021-090Z,2026-06-17T08:09:28.829664,13.19725145,.00017089,87.9176,304.9358,102.1150,258.0175,0,U,49302,999,22647,.22083956E-3,.101E-5,0
ONEWEB-0377,2021-090AA,2026-06-17T07:32:07.314720,13.20775087,.00023957,87.9173,274.4126,96.6194,263.5212,0,U,49303,999,23053,-.39594476E-2,-.1597E-4,0
ONEWEB-0378,2021-090AB,2026-06-17T08:01:12.474624,13.20770512,.00019778,87.9191,274.4113,96.2386,263.8973,0,U,49304,999,22980,.24814691E-3,.114E-5,0
ONEWEB-0379,2021-090AC,2026-06-17T08:12:56.844576,13.14502941,.00018972,87.8967,289.6770,96.5760,263.5586,0,U,49305,999,22758,.44020345E-3,.176E-5,0
ONEWEB-0380,2021-090AD,2026-06-17T08:04:56.708544,13.19725020,.00020629,87.9173,304.9416,97.1193,263.0175,0,U,49306,999,22644,.27211283E-3,.122E-5,0
ONEWEB-0381,2021-090AE,2026-06-17T07:27:04.679712,13.20772532,.00020729,87.9196,274.4157,92.9799,267.1571,0,U,49307,999,22984,.30997598E-3,.139E-5,0
ONEWEB-0382,2021-090AF,2026-06-17T07:07:40.165824,13.20770309,.00019774,87.9193,274.4125,91.7810,268.3550,0,U,49308,999,22983,.17579583E-4,.2E-6,0
ONEWEB-0383,2021-090AG,2026-06-17T08:03:48.016224,13.14501317,.00018305,87.8970,289.6696,95.6201,264.5138,0,U,49309,999,22761,.65724908E-3,.256E-5,0
ONEWEB-0384,2021-090AH,2026-06-17T08:40:23.956896,13.20812390,.00019432,87.9199,274.4435,87.0074,273.1281,0,U,49310,999,22985,-.75973791E-4,-.18E-6,0
ONEWEB-0385,2021-090AJ,2026-06-16T23:41:37.528224,13.20773160,.00019996,87.9193,274.4797,94.5361,265.6001,0,U,49311,999,22977,-.6301784E-4,-.13E-6,0
ONEWEB-0386,2021-090AK,2026-06-17T07:22:13.855584,13.20772286,.0001928,87.9199,274.4069,93.0836,267.0518,0,U,49312,999,22983,.31814961E-3,.142E-5,0
ONEWEB-0387,2021-090AL,2026-06-17T07:00:24.578496,13.20772764,.00023153,87.9185,274.4320,95.5909,264.5488,0,U,49313,999,22983,.11448501E-3,.6E-6,0
ONEWEB-0388,2021-090AM,2026-06-17T09:47:17.853792,13.19725055,.00018832,87.9169,304.9253,94.6678,265.4669,0,U,49314,999,22644,.26922878E-3,.121E-5,0
ONEWEB-0389,2021-132A,2026-06-17T12:03:32.765184,13.17648749,.00021558,87.9130,5.8054,81.8916,278.2460,0,U,50469,999,21812,-.69663563E-4,-.14E-6,0
ONEWEB-0390,2021-132B,2026-06-17T12:05:58.561728,13.17648679,.00019985,87.9131,5.8059,93.9194,266.2166,0,U,50470,999,21812,-.23106387E-4,.4E-7,0
ONEWEB-0391,2021-132C,2026-06-17T12:08:24.442944,13.17648494,.00026862,87.9132,5.8153,84.6408,275.5030,0,U,50471,999,21812,-.17698495E-4,.6E-7,0
ONEWEB-0392,2021-132D,2026-06-17T12:52:09.393312,13.17648947,.00022036,87.9141,5.7776,82.8987,277.2395,0,U,50472,999,21816,-.56958941E-4,-.9E-7,0
ONEWEB-0393,2021-132E,2026-06-17T12:16:54.532128,13.17649522,.00020092,87.9131,5.7996,84.9644,275.1717,0,U,50473,999,21815,-.43726864E-4,-.4E-7,0
ONEWEB-0394,2021-132F,2026-06-17T11:27:36.336096,13.18688414,.00018332,87.9171,335.3839,87.7684,272.3658,0,U,50474,999,22163,.12747529E-3,.63E-6,0
